[{"OBJECT_NAME":"IONOSFERA-M 4","OBJECT_ID":"2025-155B","EPOCH":"2026-03-09T23:04:46.382016","MEAN_MOTION":14.21468398,"ECCENTRICITY":0.0001693,"INCLINATION":98.5919,"RA_OF_ASC_NODE":33.341,"ARG_OF_PERICENTER":103.4918,"MEAN_ANOMALY":256.6448,"EPHEMERIS_TYPE":0,"CLASSIFICATION_TYPE":"U","NORAD_CAT_ID":64877,"ELEMENT_SET_NO":999,"REV_AT_EPOCH":3230,"BSTAR":7.6908035e-5,"MEAN_MOTION_DOT":1.25e-6,"MEAN_MOTION_DDOT":0},{"OBJECT_NAME":"FENGYUN 1C DEB","OBJECT_ID":"1999-025QQ","EPOCH":"2026-03-09T13:23:45.648672","MEAN_MOTION":14.35922727,"ECCENTRICITY":0.02280151,"INCLINATION":98.3696,"RA_OF_ASC_NODE":103.4107,"ARG_OF_PERICENTER":221.8264,"MEAN_ANOMALY":301.9681,"EPHEMERIS_TYPE":0,"CLASSIFICATION_TYPE":"U","NORAD_CAT_ID":30087,"ELEMENT_SET_NO":999,"REV_AT_EPOCH":99941,"BSTAR":0.00028739308,"MEAN_MOTION_DOT":1.069e-5,"MEAN_MOTION_DDOT":0}]
